{
  "type": "FeatureCollection",
  "features": [
    {
      "type": "Feature",
      "properties": { "kind": "land" },
      "geometry": {
        "type": "Polygon",
        "coordinates": [
          [
            [-122.49, 37.79],
            [-122.43, 37.79],
            [-122.43, 37.806],
            [-122.445, 37.808],
            [-122.452, 37.8082],
            [-122.46, 37.8103],
            [-122.467, 37.8095],
            [-122.475, 37.808],
            [-122.49, 37.804],
            [-122.49, 37.79]
          ]
        ]
      }
    },
    {
      "type": "Feature",
      "properties": { "kind": "park" },
      "geometry": {
        "type": "Polygon",
        "coordinates": [
          [
            [-122.475, 37.795],
            [-122.455, 37.795],
            [-122.448, 37.803],
            [-122.46, 37.807],
            [-122.471, 37.805],
            [-122.475, 37.795]
          ]
        ]
      }
    },
    {
      "type": "Feature",
      "properties": { "kind": "road" },
      "geometry": {
        "type": "LineString",
        "coordinates": [
          [-122.48, 37.802],
          [-122.469, 37.805],
          [-122.464, 37.8047],
          [-122.458, 37.8045],
          [-122.45, 37.803],
          [-122.44, 37.802]
        ]
      }
    },
    {
      "type": "Feature",
      "properties": { "kind": "road" },
      "geometry": {
        "type": "LineString",
        "coordinates": [
          [-122.478, 37.795],
          [-122.471, 37.798],
          [-122.467, 37.802],
          [-122.465, 37.805],
          [-122.464, 37.807],
          [-122.463, 37.809]
        ]
      }
    },
    {
      "type": "Feature",
      "properties": { "kind": "road" },
      "geometry": {
        "type": "LineString",
        "coordinates": [
          [-122.469, 37.795],
          [-122.462, 37.8],
          [-122.458, 37.8045],
          [-122.458, 37.8065]
        ]
      }
    },
    {
      "type": "Feature",
      "properties": { "kind": "road" },
      "geometry": {
        "type": "LineString",
        "coordinates": [
          [-122.47, 37.807],
          [-122.465, 37.8075],
          [-122.46, 37.8072],
          [-122.454, 37.8065],
          [-122.449, 37.8068]
        ]
      }
    }
  ]
}
